[{"OBJECT_NAME":"OBJECT D","OBJECT_ID":"2024-085D","EPOCH":"2026-03-09T22:53:13.410816","MEAN_MOTION":15.33413141,"ECCENTRICITY":0.00152451,"INCLINATION":97.3312,"RA_OF_ASC_NODE":145.3953,"ARG_OF_PERICENTER":54.9672,"MEAN_ANOMALY":305.2998,"EPHEMERIS_TYPE":0,"CLASSIFICATION_TYPE":"U","NORAD_CAT_ID":59680,"ELEMENT_SET_NO":999,"REV_AT_EPOCH":10244,"BSTAR":0.00049264705,"MEAN_MOTION_DOT":0.00015903,"MEAN_MOTION_DDOT":0},{"OBJECT_NAME":"STARLINK-32114","OBJECT_ID":"2024-132K","EPOCH":"2026-03-09T22:27:23.080320","MEAN_MOTION":15.30189887,"ECCENTRICITY":0.00012602,"INCLINATION":53.161,"RA_OF_ASC_NODE":51.5983,"ARG_OF_PERICENTER":90.0638,"MEAN_ANOMALY":270.0508,"EPHEMERIS_TYPE":0,"CLASSIFICATION_TYPE":"U","NORAD_CAT_ID":60287,"ELEMENT_SET_NO":999,"REV_AT_EPOCH":9159,"BSTAR":-2.22576e-6,"MEAN_MOTION_DOT":-4.25e-6,"MEAN_MOTION_DDOT":0}]
